      2.10          N: GNSS NAV DATA                        RINEX VERSION / TYPE
fic2rin                                 08/19/2024 00:59:01 PGM / RUN BY / DATE
                                                            END OF HEADER
26 24  8 18 13 59 44.0  .979881733656D-04 -.773070496507D-11  .000000000000D+00
     .710000000000D+02  .625000000000D-01  .565773566740D-08  .101023206221D+01
     .800937414169D-07  .906988629140D-02  .445730984211D-05  .515367197418D+04
     .503840000000D+05 -.111758708954D-06 -.165731329030D+01  .949949026108D-07
     .930179416243D+00  .277531250000D+03  .546940009035D+00 -.865607484598D-08
    -.139648674071D-09  .100000000000D+01  .232800000000D+04  .000000000000D+00
     .240000000000D+01  .000000000000D+00  .651925802231D-08  .710000000000D+02
     .432000000000D+05  .400000000000D+01
2  24  8 18 14  0  0.0 -.376458279788D-03  .773070496507D-11  .000000000000D+00
     .590000000000D+02  .147562500000D+03  .443732768965D-08 -.678331594022D+00
     .754743814468D-05  .160610850435D-01  .840611755848D-05  .515369458389D+04
     .504000000000D+05 -.193715095520D-06  .434994154361D+00 -.968575477600D-07
     .967337390628D+00  .227312500000D+03 -.114483457976D+01 -.831570352529D-08
     .473948313278D-09  .100000000000D+01  .232800000000D+04  .000000000000D+00
     .240000000000D+01  .000000000000D+00 -.176951289177D-07  .590000000000D+02
     .432000000000D+05  .400000000000D+01
1  24  8 18 14  0  0.0  .218934845179D-03 -.841282599140D-11  .000000000000D+00
     .260000000000D+02 -.687500000000D+01  .640490964734D-08  .580334436482D+00
    -.378116965294D-06  .133783257334D-01  .502727925777D-05  .515359418106D+04
     .504000000000D+05 -.210478901863D-06 -.155889750412D+01  .633299350739D-07
     .953449641587D+00  .280187500000D+03  .103457010803D+01 -.847606734794D-08
    -.249296098469D-09  .100000000000D+01  .232800000000D+04  .000000000000D+00
     .240000000000D+01  .630000000000D+02 -.195577740669D-07  .260000000000D+02
     .432000000000D+05  .400000000000D+01
5  24  8 18 14  0  0.0 -.183616764843D-03 -.125055521494D-11  .000000000000D+00
     .770000000000D+02 -.301875000000D+02  .474341186786D-08 -.529925383782D+00
    -.144727528095D-05  .594200845808D-02  .176951289177D-06  .515365637398D+04
     .504000000000D+05 -.726431608200D-07  .151894386110D+01 -.372529029846D-07
     .972207959861D+00  .379281250000D+03  .131427059726D+01 -.859321508476D-08
    -.168935608275D-09  .100000000000D+01  .232800000000D+04  .000000000000D+00
     .240000000000D+01  .000000000000D+00 -.107102096081D-07  .770000000000D+02
     .432000000000D+05  .400000000000D+01
3  24  8 18 14  0  0.0  .504761934280D-03  .145519152284D-10  .000000000000D+00
     .660000000000D+02 -.359375000000D+02  .435839583039D-08  .204421758818D+01
    -.214762985706D-05  .573061977047D-02 -.143423676491D-06  .515367522621D+04
     .504000000000D+05 -.502914190292D-07  .157139584525D+01 -.335276126862D-07
     .985282545887D+00  .394312500000D+03  .114966011744D+01 -.829498837670D-08
    -.198936857947D-09  .100000000000D+01  .232800000000D+04  .000000000000D+00
     .240000000000D+01  .000000000000D+00  .139698386192D-08  .660000000000D+02
     .432000000000D+05  .400000000000D+01
4  24  8 18 14  0  0.0  .426569953561D-03  .738964445191D-11  .000000000000D+00
     .173000000000D+03 -.138718750000D+03  .401409577463D-08 -.118151029588D+01
    -.723637640476D-05  .296346400864D-02  .104587525129D-04  .515372402954D+04
     .504000000000D+05  .186264514923D-07  .264949756477D+01 -.109896063805D-06
     .965895443479D+00  .182343750000D+03 -.298836341018D+01 -.775103714752D-08
    -.213580325049D-09  .100000000000D+01  .232800000000D+04  .000000000000D+00
     .240000000000D+01  .000000000000D+00 -.465661287308D-08  .941000000000D+03
     .432000000000D+05  .400000000000D+01
17 24  8 18 14  0  0.0  .651519279927D-03 -.966338120634D-11  .000000000000D+00
     .600000000000D+01  .275312500000D+02  .425732019162D-08 -.916947807905D+00
     .138580799103D-05  .134782647947D-01  .123381614685D-04  .515378339386D+04
     .504000000000D+05 -.236555933952D-06 -.466864069025D+00  .651925802231D-07
     .967879539291D+00  .153687500000D+03 -.131046494023D+01 -.791711549392D-08
    -.303226916332D-09  .100000000000D+01  .232800000000D+04  .000000000000D+00
     .240000000000D+01  .000000000000D+00 -.111758708954D-07  .600000000000D+01
     .432000000000D+05  .400000000000D+01
12 24  8 18 14  0  0.0 -.531302299351D-03 -.295585778076D-11  .000000000000D+00
     .160000000000D+02 -.159375000000D+02  .479448542385D-08  .186206622027D+01
    -.935047864914D-06  .866960966960D-02  .503845512867D-05  .515359781647D+04
     .504000000000D+05  .670552253723D-07 -.150568083660D+01 -.167638063431D-06
     .961402786948D+00  .281406250000D+03  .146015635765D+01 -.811890961375D-08
    -.177864551630D-09  .100000000000D+01  .232800000000D+04  .000000000000D+00
     .240000000000D+01  .000000000000D+00 -.125728547573D-07  .160000000000D+02
     .432000000000D+05  .400000000000D+01
10 24  8 18 14  0  0.0 -.976300798357D-04 -.112549969344D-10  .000000000000D+00
     .550000000000D+02 -.427187500000D+02  .454983237592D-08  .111936491267D+01
    -.207126140594D-05  .953855866101D-02  .238418579102D-06  .515368589592D+04
     .504000000000D+05 -.782310962677D-07  .156884114263D+01  .165775418282D-06
     .984928759631D+00  .390875000000D+03 -.238053035627D+01 -.859821529304D-08
    -.270011247052D-09  .100000000000D+01  .232800000000D+04  .000000000000D+00
     .340000000000D+01  .000000000000D+00  .232830643654D-08  .550000000000D+02
     .432000000000D+05  .400000000000D+01
6  24  8 18 14  0  0.0  .903876498342D-04 -.245563569479D-10  .000000000000D+00
     .110000000000D+03  .137343750000D+03  .392302055241D-08 -.278450784147D+01
     .726245343685D-05  .295810692478D-02  .678747892380D-05  .515368084717D+04
     .504000000000D+05 -.968575477600D-07  .535097151756D+00  .540167093277D-07
     .989798110253D+00  .263593750000D+03 -.734347106173D+00 -.776675208783D-08
     .388587614805D-09  .100000000000D+01  .232800000000D+04  .000000000000D+00
     .240000000000D+01  .000000000000D+00  .372529029846D-08  .110000000000D+03
     .432000000000D+05  .400000000000D+01
9  24  8 18 14  0  0.0  .319271348417D-03  .155750967679D-10  .000000000000D+00
     .680000000000D+02 -.135125000000D+03  .430517932800D-08 -.361997409525D+00
    -.701658427715D-05  .299893622287D-02  .920332968235D-05  .515361848068D+04
     .504000000000D+05 -.800937414169D-07  .258935253039D+01 -.111758708954D-07
     .959518833731D+00  .202000000000D+03  .197559993062D+01 -.795140263641D-08
    -.228580949885D-09  .100000000000D+01  .232800000000D+04  .000000000000D+00
     .240000000000D+01  .000000000000D+00  .931322574615D-09  .680000000000D+02
     .432000000000D+05  .400000000000D+01
8  24  8 18 14  0  0.0  .320258084685D-03  .143245415529D-10  .000000000000D+00
     .870000000000D+02  .183125000000D+02  .455947563475D-08 -.849434692993D+00
     .983476638794D-06  .957102479879D-02  .116731971502D-04  .515367197037D+04
     .504000000000D+05  .197440385818D-06 -.562841578920D+00 -.596046447754D-07
     .952021687250D+00  .145406250000D+03  .365998652856D+00 -.795676000242D-08
    -.510378402166D-09  .100000000000D+01  .232800000000D+04  .000000000000D+00
     .340000000000D+01  .000000000000D+00  .465661287308D-08  .870000000000D+02
     .432000000000D+05  .400000000000D+01
30 24  8 18 14  0  0.0 -.337749719620D-03  .682121026330D-11  .000000000000D+00
     .200000000000D+02  .181875000000D+02  .495520640424D-08  .244441550603D+01
     .817701220512D-06  .718232558575D-02  .976957380772D-05  .515359669876D+04
     .504000000000D+05 -.670552253723D-07 -.262248691537D+01 -.167638063431D-06
     .935700195509D+00  .177312500000D+03 -.244650246985D+01 -.807533637017D-08
     .607168148133D-09  .100000000000D+01  .232800000000D+04  .000000000000D+00
     .240000000000D+01  .000000000000D+00  .419095158577D-08  .200000000000D+02
     .432000000000D+05  .400000000000D+01
21 24  8 18 14  0  0.0  .103337224573D-03 -.568434188608D-12  .000000000000D+00
     .210000000000D+02  .143718750000D+03  .458090509880D-08 -.103829508806D+01
     .718794763088D-05  .253112548962D-01  .817328691483D-05  .515366295433D+04
     .504000000000D+05 -.176951289177D-06  .427314526405D+00 -.337138772011D-06
     .961593732867D+00  .229687500000D+03 -.531898446265D+00 -.834641909043D-08
     .659670335060D-09  .100000000000D+01  .232800000000D+04  .000000000000D+00
     .240000000000D+01  .000000000000D+00 -.102445483208D-07  .210000000000D+02
     .432000000000D+05  .400000000000D+01
24 24  8 18 14  0  0.0 -.486374367028D-03 -.568434188608D-12  .000000000000D+00
     .460000000000D+02  .144375000000D+02  .478091342995D-08 -.272488083370D+01
     .713393092155D-06  .156939688604D-01  .106878578663D-04  .515370490646D+04
     .504000000000D+05  .502914190292D-07 -.272030696766D+01 -.856816768646D-07
     .934350618471D+00  .156562500000D+03  .997886790585D+00 -.780568228086D-08
     .715744099329D-09  .100000000000D+01  .232800000000D+04  .000000000000D+00
     .240000000000D+01  .000000000000D+00  .232830643654D-08  .460000000000D+02
     .432000000000D+05  .400000000000D+01
27 24  8 18 14  0  0.0 -.331620685756D-04 -.454747350886D-12  .000000000000D+00
     .260000000000D+02  .267812500000D+02  .437303929750D-08 -.799769314699D+00
     .159628689289D-05  .125510366634D-01  .119172036648D-04  .515368494606D+04
     .504000000000D+05  .128522515297D-06 -.535671708443D+00  .175088644028D-06
     .961073453367D+00  .150781250000D+03  .796670659639D+00 -.791925844033D-08
    -.514664294977D-09  .100000000000D+01  .232800000000D+04  .000000000000D+00
     .240000000000D+01  .000000000000D+00  .186264514923D-08  .260000000000D+02
     .432000000000D+05  .400000000000D+01
